NORAD_CAT_ID,OBJECT_NAME,OBJECT_TYPE,EPOCH,MEAN_MOTION,ECCENTRICITY,INCLINATION,RA_OF_ASC_NODE,ARG_OF_PERICENTER,MEAN_ANOMALY,BSTAR,MEAN_MOTION_DOT,MEAN_MOTION_DDOT,TLE_LINE0,TLE_LINE1,TLE_LINE2,SEMIMAJOR_AXIS,PERIOD,APOGEE,PERIGEE,DECAYED
40536,KOMPSAT 3A,PAYLOAD,2022-02-14 04:40:09,15.12136286,0.0002533,97.5612,349.1112,111.0877,358.9493,0.00016301,2.744e-05,0.0,0 KOMPSAT 3A,1 40536U 15014A   22045.19455925  .00002744  00000-0  16301-3 0  9993,2 40536  97.5612 349.1112 0002533 111.0877 358.9493 15.12136286380411,6907.823,95.23,531.438,527.939,0.0
40536,KOMPSAT 3A,PAYLOAD,2022-02-14 12:39:15,15.1213971,0.00025259999999999996,97.5613,349.4408,108.0753,11.9517,0.00017447,2.942e-05,0.0,0 KOMPSAT 3A,1 40536U 15014A   22045.52726101  .00002942  00000-0  17447-3 0  9999,2 40536  97.5613 349.4408 0002526 108.0753  11.9517 15.12139710380467,6907.813,95.229,531.423,527.933,0.0
40536,KOMPSAT 3A,PAYLOAD,2022-02-14 20:26:14,15.12142753,0.00025550000000000003,97.5613,349.7618,108.6823,335.6116,0.00018238,3.078e-05,0.0,0 KOMPSAT 3A,1 40536U 15014A   22045.85155765  .00003078  00000-0  18238-3 0  9997,2 40536  97.5613 349.7618 0002555 108.6823 335.6116 15.12142753380517,6907.804,95.229,531.434,527.904,0.0
40536,KOMPSAT 3A,PAYLOAD,2022-02-15 04:29:47,15.12145675,0.0002565,97.5614,350.0943,109.9,1.2262,0.00018838,3.182e-05,0.0,0 KOMPSAT 3A,1 40536U 15014A   22046.18735435  .00003182  00000-0  18838-3 0  9994,2 40536  97.5614 350.0943 0002565 109.9000   1.2262 15.12145675380565,6907.795,95.229,531.432,527.888,0.0
40536,KOMPSAT 3A,PAYLOAD,2022-02-15 12:30:10,15.12148449,0.0002612,97.5616,350.4249,107.1481,18.8693,0.00019401,3.28e-05,0.0,0 KOMPSAT 3A,1 40536U 15014A   22046.52095612  .00003280  00000-0  19401-3 0  9994,2 40536  97.5616 350.4249 0002612 107.1481  18.8693 15.12148449380616,6907.786,95.229,531.456,527.847,0.0
40536,KOMPSAT 3A,PAYLOAD,2022-02-15 21:39:57,15.12151377,0.0002652,97.5616,350.8029,108.04899999999999,295.0314,0.00019763,3.342e-05,0.0,0 KOMPSAT 3A,1 40536U 15014A   22046.90274787  .00003342  00000-0  19763-3 0  9998,2 40536  97.5616 350.8029 0002652 108.0490 295.0314 15.12151377380679,6907.776999999999,95.229,531.474,527.81,0.0
40536,KOMPSAT 3A,PAYLOAD,2022-02-16 04:19:23,15.12153182,0.0002689,97.5617,351.0775,108.1954,3.9189999999999996,0.00019761,3.342e-05,0.0,0 KOMPSAT 3A,1 40536U 15014A   22047.18012826  .00003342  00000-0  19761-3 0  9991,2 40536  97.5617 351.0775 0002689 108.1954   3.9190 15.12153182380716,6907.772,95.228,531.494,527.779,0.0
40536,KOMPSAT 3A,PAYLOAD,2022-02-16 12:21:07,15.12155195,0.0002679,97.5617,351.4087,106.9504,25.1846,0.00019672,3.327e-05,0.0,0 KOMPSAT 3A,1 40536U 15014A   22047.51467207  .00003327  00000-0  19672-3 0  9999,2 40536  97.5617 351.4087 0002679 106.9504  25.1846 15.12155195380767,6907.766,95.228,531.481,527.78,0.0
40536,KOMPSAT 3A,PAYLOAD,2022-02-16 20:04:59,15.12156722,0.0002714,97.5618,351.7277,107.0531,337.5816,0.00019307,3.264e-05,0.0,0 KOMPSAT 3A,1 40536U 15014A   22047.83680454  .00003264  00000-0  19307-3 0  9990,2 40536  97.5618 351.7277 0002714 107.0531 337.5816 15.12156722380814,6907.7609999999995,95.228,531.501,527.751,0.0
40536,KOMPSAT 3A,PAYLOAD,2022-02-17 02:50:10,15.12157845,0.0002759,97.5618,352.0061,106.9527,68.4043,0.00018835,3.183e-05,0.0,0 KOMPSAT 3A,1 40536U 15014A   22048.11817130  .00003183  00000-0  18835-3 0  9990,2 40536  97.5618 352.0061 0002759 106.9527  68.4043 15.12157845380854,6907.7580000000025,95.228,531.528,527.717,0.0
40536,KOMPSAT 3A,PAYLOAD,2022-02-17 10:37:10,15.12159209,0.0002721,97.5619,352.3273,106.7061,32.9863,0.00018347,3.099e-05,0.0,0 KOMPSAT 3A,1 40536U 15014A   22048.44247878  .00003099  00000-0  18347-3 0  9996,2 40536  97.5619 352.3273 0002721 106.7061  32.9863 15.12159209380901,6907.753000000002,95.228,531.498,527.739,0.0
40536,KOMPSAT 3A,PAYLOAD,2022-02-17 19:45:49,15.12159672,0.0002735,97.5619,352.7046,105.8742,306.6221,0.00017054,2.876e-05,0.0,0 KOMPSAT 3A,1 40536U 15014A   22048.82348766  .00002876  00000-0  17054-3 0  9992,2 40536  97.5619 352.7046 0002735 105.8742 306.6221 15.12159672380963,6907.7519999999995,95.228,531.506,527.7280000000002,0.0
40536,KOMPSAT 3A,PAYLOAD,2022-02-17 21:29:40,15.121597699999999,0.00027519999999999997,97.5619,352.776,105.169,339.6896,0.00016817,2.835e-05,0.0,0 KOMPSAT 3A,1 40536U 15014A   22048.89560902  .00002835  00000-0  16817-3 0  9998,2 40536  97.5619 352.7760 0002752 105.1690 339.6896 15.12159770380974,6907.7519999999995,95.228,531.518,527.716,0.0
40536,KOMPSAT 3A,PAYLOAD,2022-02-18 02:27:32,15.12160369,0.0002748,97.56200000000001,352.9807,103.962,26.2589,0.00016380000000000002,2.7600000000000014e-05,0.0,0 KOMPSAT 3A,1 40536U 15014A   22049.10246497  .00002760  00000-0  16380-3 0  9995,2 40536  97.5620 352.9807 0002748 103.9620  26.2589 15.12160369381003,6907.75,95.228,531.513,527.717,0.0
40536,KOMPSAT 3A,PAYLOAD,2022-02-18 12:00:03,15.12161492,0.0002723,97.5621,353.3747,104.5026,28.6716,0.00015596,2.624e-05,0.0,0 KOMPSAT 3A,1 40536U 15014A   22049.50004293  .00002624  00000-0  15596-3 0  9992,2 40536  97.5621 353.3747 0002723 104.5026  28.6716 15.12161492381064,6907.7469999999985,95.228,531.492,527.731,0.0
40536,KOMPSAT 3A,PAYLOAD,2022-02-18 19:43:32,15.12161331,0.000277,97.5623,353.6939,103.3146,340.8629,0.00014195,2.383e-05,0.0,0 KOMPSAT 3A,1 40536U 15014A   22049.82190014  .00002383  00000-0  14195-3 0  9990,2 40536  97.5623 353.6939 0002770 103.3146 340.8629 15.12161331381114,6907.7469999999985,95.228,531.525,527.6990000000002,0.0
40536,KOMPSAT 3A,PAYLOAD,2022-02-19 03:50:37,15.12161898,0.0002747,97.5625,354.0285,102.6784,21.7412,0.00013358,2.238e-05,0.0,0 KOMPSAT 3A,1 40536U 15014A   22050.16015963  .00002238  00000-0  13358-3 0  9997,2 40536  97.5625 354.0285 0002747 102.6784  21.7412 15.12161898381167,6907.745,95.228,531.508,527.7130000000002,0.0
40536,KOMPSAT 3A,PAYLOAD,2022-02-19 11:49:44,15.12162618,0.0002715,97.5625,354.3582,102.1786,32.3324,0.00012819,2.146e-05,0.0,0 KOMPSAT 3A,1 40536U 15014A   22050.49287690  .00002146  00000-0  12819-3 0  9990,2 40536  97.5625 354.3582 0002715 102.1786  32.3324 15.12162618381219,6907.743,95.228,531.484,527.7330000000002,0.0
40536,KOMPSAT 3A,PAYLOAD,2022-02-19 19:32:48,15.12162856,0.0002744,97.5626,354.6768,101.0869,342.902,0.00011931,1.992e-05,0.0,0 KOMPSAT 3A,1 40536U 15014A   22050.81445275  .00001992  00000-0  11931-3 0  9993,2 40536  97.5626 354.6768 0002744 101.0869 342.9020 15.12162856381263,6907.7419999999975,95.228,531.503,527.712,0.0
40536,KOMPSAT 3A,PAYLOAD,2022-02-20 03:40:09,15.12163729,0.00027519999999999997,97.5627,355.0119,100.2467,24.971999999999998,0.00011525,1.923e-05,0.0,0 KOMPSAT 3A,1 40536U 15014A   22051.15289293  .00001923  00000-0  11525-3 0  9990,2 40536  97.5627 355.0119 0002752 100.2467  24.9720 15.12163729381313,6907.74,95.228,531.506,527.7040000000002,0.0
40536,KOMPSAT 3A,PAYLOAD,2022-02-20 08:23:20,15.12164326,0.00027430000000000005,97.5626,355.2067,100.4043,14.6607,0.00011363,1.895e-05,0.0,0 KOMPSAT 3A,1 40536U 15014A   22051.34954326  .00001895  00000-0  11363-3 0  9995,2 40536  97.5626 355.2067 0002743 100.4043  14.6607 15.12164326381345,6907.738,95.228,531.498,527.7080000000002,0.0
40536,KOMPSAT 3A,PAYLOAD,2022-02-20 20:52:19,15.12165667,0.00027749999999999997,97.5628,355.7216,99.574,325.1326,0.00010814,1.8e-05,0.0,0 KOMPSAT 3A,1 40536U 15014A   22051.86966465  .00001800  00000-0  10814-3 0  9995,2 40536  97.5628 355.7216 0002775  99.5740 325.1326 15.12165667381421,6907.734,95.228,531.516,527.682,0.0
40536,KOMPSAT 3A,PAYLOAD,2022-02-21 03:30:08,15.12166675,0.0002783,97.5629,355.9952,98.8537,28.849,0.00010759999999999999,1.791e-05,0.0,0 KOMPSAT 3A,1 40536U 15014A   22052.14593247  .00001791  00000-0  10760-3 0  9990,2 40536  97.5629 355.9952 0002783  98.8537  28.8490 15.12166675381469,6907.731,95.228,531.518,527.673,0.0
40536,KOMPSAT 3A,PAYLOAD,2022-02-21 11:28:46,15.12167964,0.00028139999999999996,97.5629,356.3244,98.6106,37.351,0.00010772,1.793e-05,0.0,0 KOMPSAT 3A,1 40536U 15014A   22052.47831069  .00001793  00000-0  10772-3 0  9998,2 40536  97.5629 356.3244 0002814  98.6106  37.3510 15.12167964381519,6907.727,95.228,531.536,527.648,0.0
40536,KOMPSAT 3A,PAYLOAD,2022-02-21 19:03:29,15.12169569,0.0002807,97.5631,356.6372,98.6163,315.318,0.00011019,1.836e-05,0.0,0 KOMPSAT 3A,1 40536U 15014A   22052.79409258  .00001836  00000-0  11019-3 0  9997,2 40536  97.5631 356.6372 0002807  98.6163 315.3180 15.12169569381562,6907.722,95.227,531.526,527.648,0.0
40536,KOMPSAT 3A,PAYLOAD,2022-02-21 20:47:00,15.12169913,0.0002807,97.5631,356.7083,98.478,346.5271,0.00011057,1.842e-05,0.0,0 KOMPSAT 3A,1 40536U 15014A   22052.86597559  .00001842  00000-0  11057-3 0  9996,2 40536  97.5631 356.7083 0002807  98.4780 346.5271 15.12169913381576,6907.721,95.227,531.525,527.6469999999998,0.0
40536,KOMPSAT 3A,PAYLOAD,2022-02-22 03:00:37,15.12171083,0.0002799,97.5631,356.9654,98.1534,318.3821,0.00011161,1.86e-05,0.0,0 KOMPSAT 3A,1 40536U 15014A   22053.12543005  .00001860  00000-0  11161-3 0  9999,2 40536  97.5631 356.9654 0002799  98.1534 318.3821 15.12171083381610,6907.717,95.227,531.516,527.649,0.0
40536,KOMPSAT 3A,PAYLOAD,2022-02-22 12:47:18,15.12173275,0.0002811000000000001,97.56299999999999,357.3687,96.7665,16.3134,0.00011564,1.93e-05,0.0,0 KOMPSAT 3A,1 40536U 15014A   22053.53285398  .00001930  00000-0  11564-3 0  9997,2 40536  97.5630 357.3687 0002811  96.7665  16.3134 15.12173275381677,6907.7109999999975,95.227,531.5169999999998,527.634,0.0
40536,KOMPSAT 3A,PAYLOAD,2022-02-22 20:36:13,15.12175261,0.0002826,97.5631,357.6911,97.2668,347.3984,0.00012016,2.008e-05,0.0,0 KOMPSAT 3A,1 40536U 15014A   22053.85848902  .00002008  00000-0  12016-3 0  9998,2 40536  97.5631 357.6911 0002826  97.2668 347.3984 15.12175261381729,6907.705,95.227,531.5219999999998,527.617,0.0
